{
  "type": "FeatureCollection",
  "name": "Khed_Cadastral_Parcels_Sample",
  "crs": {
    "type": "name",
    "properties": {
      "name": "urn:ogc:def:crs:OGC:1.3:CRS84"
    }
  },
  "features": [
    {
      "type": "Feature",
      "properties": {
        "id": 1,
        "gat_number": "141",
        "survey_number": "42/1",
        "village": "Khed",
        "tehsil": "Khed",
        "district": "Pune",
        "state": "Maharashtra",
        "area_ha": 0.85,
        "owner_name": "Rameshwar Kisan Patil",
        "land_classification": "Jirayat (Rainfed)",
        "khata_number": "218"
      },
      "geometry": {
        "type": "Polygon",
        "coordinates": [
          [
            [73.9105, 18.8520],
            [73.9125, 18.8522],
            [73.9124, 18.8505],
            [73.9103, 18.8503],
            [73.9105, 18.8520]
          ]
        ]
      }
    },
    {
      "type": "Feature",
      "properties": {
        "id": 2,
        "gat_number": "142",
        "survey_number": "42/2",
        "village": "Khed",
        "tehsil": "Khed",
        "district": "Pune",
        "state": "Maharashtra",
        "area_ha": 1.00,
        "owner_name": "Dattatray Bapurao Jadhav",
        "land_classification": "Jirayat / Bagayat",
        "khata_number": "314"
      },
      "geometry": {
        "type": "Polygon",
        "coordinates": [
          [
            [73.9125, 18.8522],
            [73.9150, 18.8524],
            [73.9148, 18.8506],
            [73.9124, 18.8505],
            [73.9125, 18.8522]
          ]
        ]
      }
    },
    {
      "type": "Feature",
      "properties": {
        "id": 3,
        "gat_number": "143",
        "survey_number": "42/3",
        "village": "Khed",
        "tehsil": "Khed",
        "district": "Pune",
        "state": "Maharashtra",
        "area_ha": 1.45,
        "owner_name": "Sunita Suresh Kulkarni",
        "land_classification": "Bagayat (Irrigated)",
        "khata_number": "502"
      },
      "geometry": {
        "type": "Polygon",
        "coordinates": [
          [
            [73.9150, 18.8524],
            [73.9180, 18.8527],
            [73.9177, 18.8508],
            [73.9148, 18.8506],
            [73.9150, 18.8524]
          ]
        ]
      }
    },
    {
      "type": "Feature",
      "properties": {
        "id": 4,
        "gat_number": "144",
        "survey_number": "43/1",
        "village": "Khed",
        "tehsil": "Khed",
        "district": "Pune",
        "state": "Maharashtra",
        "area_ha": 0.60,
        "owner_name": "Tukaram Mahadev Shinde",
        "land_classification": "Jirayat (Rainfed)",
        "khata_number": "119"
      },
      "geometry": {
        "type": "Polygon",
        "coordinates": [
          [
            [73.9103, 18.8503],
            [73.9124, 18.8505],
            [73.9122, 18.8488],
            [73.9100, 18.8486],
            [73.9103, 18.8503]
          ]
        ]
      }
    },
    {
      "type": "Feature",
      "properties": {
        "id": 5,
        "gat_number": "145",
        "survey_number": "43/2",
        "village": "Khed",
        "tehsil": "Khed",
        "district": "Pune",
        "state": "Maharashtra",
        "area_ha": 2.10,
        "owner_name": "Grampanchayat Common Grazing Land",
        "land_classification": "Gairan (Public)",
        "khata_number": "001"
      },
      "geometry": {
        "type": "Polygon",
        "coordinates": [
          [
            [73.9124, 18.8505],
            [73.9177, 18.8508],
            [73.9174, 18.8489],
            [73.9122, 18.8488],
            [73.9124, 18.8505]
          ]
        ]
      }
    }
  ]
}
